ESTCUBE 1               
1 39161U 13021C   22202.18430056  .00001025  00000+0  16707-3 0  9993
2 39161  97.9075 278.5427 0008348 322.6132  37.4501 14.73009423494433
FENGYUN 3C              
1 39260U 13052A   22202.18940857  .00000056  00000+0  49209-4 0  9999
2 39260  98.4523 228.5930 0011113 171.6765 188.4601 14.15932539456692
CASSIOPE                
1 39265U 13055A   22201.81800587  .00009933  00000+0  26660-3 0  9999
2 39265  80.9638 231.9402 0619969 219.1837 136.2898 14.39145965457115
ZACUBE-1 (TSHEPISOSAT)  
1 39417U 13066B   22201.84709956  .00002052  00000+0  25545-3 0  9997
2 39417  97.6376 171.8415 0056142 296.0037  63.5402 14.82455156468072
CINEMA-3 (KHUSAT-2)     
1 39426U 13066L   22201.83669351  .00000931  00000+0  14988-3 0  9993
2 39426  97.7992 140.3197 0104245 128.3885 232.6742 14.70208363464177
TRITON-1                
1 39427U 13066M   22202.25606118  .00001139  00000+0  18439-3 0  9999
2 39427  97.8132 136.5843 0112230 155.9508 204.6997 14.69033255463939
DELFI-N3XT              
1 39428U 13066N   22201.82943398  .00001918  00000+0  30066-3 0  9991
2 39428  97.8143 134.7566 0117140 170.4178 189.9302 14.69287320463618
GOMX-1                  
1 39430U 13066Q   22202.23639371  .00001370  00000+0  25269-3 0  9994
2 39430  97.8078 107.5046 0147862 298.7434  59.8984 14.60271066461229
BRITE-PL1 (LEM)         
1 39431U 13066R   22201.55565416  .00000510  00000+0  11694-3 0  9999
2 39431  97.6985  52.3221 0202600 125.8984 236.1205 14.47374151457358
ICUBE-1                 
1 39432U 13066S   22201.77706904  .00002429  00000+0  24189-3 0  9997
2 39432  97.4680 203.8232 0031775 150.2158 210.0879 14.92120387469678
HUMSAT-D                
1 39433U 13066T   22202.02903448  .00004114  00000+0  38189-3 0  9997
2 39433  97.4491 211.6870 0030739 124.6270 235.7856 14.94563009471411
VELOX-PII               
1 39438U 13066Y   22201.85514373  .00002027  00000+0  27068-3 0  9992
2 39438  97.6935 163.0916 0069081 349.2177  10.7550 14.78986482467070
FIRST-MOVE              
1 39439U 13066Z   22202.18053058  .00003488  00000+0  40748-3 0  9990
2 39439  97.6383 174.6109 0060944 289.8222  69.6430 14.84434567468147
CUBEBUG-2 (LO-74)       
1 39440U 13066AA  22201.85334961  .00002459  00000+0  33742-3 0  9993
2 39440  97.7272 158.0094 0079393  24.2431 336.2483 14.77107507465216
NEE-02 KRYSAOR          
1 39441U 13066AB  22201.81669675  .00001654  00000+0  23573-3 0  9990
2 39441  97.7387 155.1419 0081558  37.8919 322.7993 14.75812583464951
FUNCUBE-1 (AO-73)       
1 39444U 13066AE  22201.83922236  .00002250  00000+0  27242-3 0  9990
2 39444  97.6257 174.2440 0054851 283.7057  75.8055 14.83558400467060
HINCUBE                 
1 39445U 13066AF  22201.89522744  .00002301  00000+0  27978-3 0  9990
2 39445  97.6272 174.1147 0054948 285.8243  73.6917 14.83363062466428
UWE-3                   
1 39446U 13066AG  22201.88490542  .00002302  00000+0  30171-3 0  9990
2 39446  97.6867 164.5078 0068083 341.7005  18.1759 14.79676174465409
AIST-1 (RS-41)          
1 39492U 13078C   22202.13364175  .00000973  00000+0  10185-3 0  9990
2 39492  82.4172 204.3898 0019817 359.7770   0.3430 14.88500540464796
SPROUT                  
1 39770U 14029E   22202.27149247  .00006918  00000+0  70047-3 0  9990
2 39770  97.9458 319.4297 0008133 344.3203  15.8009 14.91248023442703
UNISAT-6                
1 40012U 14033C   22201.76176231  .00001378  00000+0  20654-3 0  9996
2 40012  97.6623  27.9455 0058616  52.1480 308.5013 14.74983840434896
BUGSAT-1 (TITA)         
1 40014U 14033E   22201.96194072  .00003038  00000+0  26850-3 0  9992
2 40014  98.1393 201.7332 0029600 288.4692  71.3313 14.96839542441152
DUCHIFAT-1              
1 40021U 14033M   22202.11935334  .00003652  00000+0  35610-3 0  9998
2 40021  98.0128 152.9378 0011106 292.9825  67.0222 14.93062304439724
NANOSATC-BR1            
1 40024U 14033Q   22201.81532859  .00002954  00000+0  29788-3 0  9995
2 40024  97.9859 145.8218 0010543 302.3468  57.6729 14.91879658438950
QB50P1                  
1 40025U 14033R   22202.09069547  .00002705  00000+0  28182-3 0  9997
2 40025  97.9601 139.7555 0011002 311.8494  48.1783 14.90631824439289
DTUSAT-2                
1 40030U 14033W   22202.08919669  .00002767  00000+0  29202-3 0  9993
2 40030  97.9368 134.9944 0010416 308.6085  51.4199 14.90077568439166
QB50P2                  
1 40032U 14033Y   22202.26352450  .00001971  00000+0  20991-3 0  9996
2 40032  97.9372 135.1833 0010408 309.1295  50.8996 14.90049792439170
POLYITAN-1              
1 40042U 14033AJ  22201.83575077  .00003471  00000+0  35931-3 0  9998
2 40042  97.9706 140.7343 0012999 303.4177  56.5797 14.90677422438621
TIGRISAT                
1 40043U 14033AK  22202.07822246  .00001074  00000+0  16191-3 0  9993
2 40043  97.6565  29.5233 0060339  48.5545 312.0826 14.75072024434888
AISAT                   
1 40054U 14034B   22202.04574812  .00003077  00000+0  41552-3 0  9990
2 40054  98.3617  14.8106 0011831 201.7751 158.2957 14.79819389434441
CANX-4                  
1 40055U 14034C   22202.24693047  .00000796  00000+0  12505-3 0  9996
2 40055  98.3598   0.3045 0012880 248.6243 111.3591 14.75479331433733
CANX-5                  
1 40056U 14034D   22201.84664787  .00000827  00000+0  12962-3 0  9993
2 40056  98.3598 359.8714 0012882 250.2161 109.7658 14.75474156433677
VELOX-I                 
1 40057U 14034E   22202.13308937  .00002125  00000+0  29343-3 0  9993
2 40057  98.3670  16.0279 0009744 216.7485 143.3062 14.79251984434452
METEOR-M 2              
1 40069U 14037A   22202.33961842  .00000009  00000+0  23213-4 0  9991
2 40069  98.4303 218.5966 0004817 215.1681 144.9178 14.20713683416672
DX1                     
1 40071U 14037C   22202.16525866  .00000789  00000+0  10704-3 0  9992
2 40071  98.4054  72.5736 0007770 201.3277 158.7617 14.81913734434330
UKUBE-1                 
1 40074U 14037F   22202.16640104  .00001854  00000+0  22163-3 0  9994
2 40074  98.3775  84.5937 0004119 163.9936 196.1411 14.85505593435071
FIREBIRD 3              
1 40377U 15003B   22202.10784294  .00014416  00000+0  42287-3 0  9994
2 40377  99.0964  74.5438 0097219 271.0618  87.9481 15.30687656413578
FIREBIRD 4              
1 40378U 15003C   22202.13124782  .00014919  00000+0  43613-3 0  9990
2 40378  99.0967  74.7904 0097134 270.5952  88.4154 15.30788620413580
GRIFEX                  
1 40379U 15003D   22202.14555822  .00009405  00000+0  32966-3 0  9998
2 40379  99.1089  60.3530 0113417 314.5828  44.6189 15.23786159412765
CP10 (EXOCUBE)          
1 40380U 15003E   22201.53359988  .00008266  00000+0  31547-3 0  9995
2 40380  99.1186  52.2767 0122179 341.2969  18.3790 15.20258722412195
DEORBITSAIL             
1 40719U 15032E   22202.14905069  .00002352  00000+0  32828-3 0  9991
2 40719  97.7788  79.3614 0014273 254.7741 105.1893 14.78532171378864
NUDT-PHONESAT           
1 40900U 15049B   22202.30835711  .00030430  00000+0  82649-3 0  9999
2 40900  97.3985 220.4928 0010105 153.6826 262.9191 15.37479603379814
XW-2A                   
1 40903U 15049E   22202.25797169  .00025406  00000+0  38177-3 0  9994
2 40903  97.1767 260.8634 0009081   6.0058  34.4170 15.54811028384516
XW-2C                   
1 40906U 15049H   22202.31403192  .00005675  00000+0  27100-3 0  9994
2 40906  97.4932 205.4612 0012201 237.7611 180.3012 15.19383904378060
XW-2D                   
1 40907U 15049J   22202.25623933  .00006582  00000+0  30759-3 0  9997
2 40907  97.4923 205.4141 0011489 232.2403 184.5780 15.20076925378101
LILACSAT-2              
1 40908U 15049K   22202.28182964  .00002990  00000+0  15903-3 0  9998
2 40908  97.5176 202.5326 0013581 259.2149 157.5083 15.15967331377612
XW-2E                   
1 40909U 15049L   22202.28246793  .00010143  00000+0  42000-3 0  9997
2 40909  97.4643 210.0417 0010953 208.7133 208.3473 15.24069124378564
XW-2F                   
1 40910U 15049M   22202.22291758  .00009970  00000+0  41932-3 0  9993
2 40910  97.4720 209.1250 0011901 210.9462 211.3697 15.23536389378327
XW-2B                   
1 40911U 15049N   22202.28395926  .00006358  00000+0  29822-3 0  9993
2 40911  97.4909 206.0325 0011519 233.6042 183.6859 15.19960343377996
KAITUO 1B               
1 40912U 15049P   22202.28759524  .00011770  00000+0  44963-3 0  9999
2 40912  97.4358 213.5365 0012790 174.2041 241.7774 15.26707589378917
TIANWANG 1A (TW-1A)     
1 40928U 15051D   22202.32706284  .00051845  00000+0  58361-3 0  9993
2 40928  97.0370 224.7362 0004790 239.9038 177.3196 15.62404291383520
LAPAN-A2                
1 40931U 15052B   22201.67712279  .00000776  00000+0  18592-4 0  9996
2 40931   6.0033 292.0994 0013973 282.4740  77.4288 14.76832517368261
LQSAT                   
1 40958U 15057A   22202.29202513  .00000397  00000+0  68548-4 0  9999
2 40958  97.7473 246.9866 0017168 207.8198 152.2092 14.73392942364967
ATHENOXAT 1             
1 41168U 15077C   22202.25298580  .00016005  00000+0  65000-3 0  9992
2 41168  14.9854 199.7614 0010048 358.6387  96.4074 15.21742629365466
GALASSIA                
1 41170U 15077E   22201.32214594  .00014242  00000+0  58941-3 0  9992
2 41170  14.9870 197.7418 0010476  10.2271 349.8263 15.20916130365234
VELOX-II                
1 41171U 15077F   22201.80978799  .00009250  00000+0  42858-3 0  9993
2 41171  14.9908 269.1317 0007711 213.1038 146.8801 15.16192572364684
CHUBUSAT-2              
1 41338U 16012B   22202.17180103  .00002137  00000+0  15466-3 0  9995
2 41338  31.0017 169.1847 0013275 128.0726 232.1109 15.01484962352551
CHUBUSAT-3              
1 41339U 16012C   22202.16294951  .00001859  00000+0  13347-3 0  9998
2 41339  31.0099 166.1681 0012874 135.8897 224.2800 15.01553615352556
HORYU-4                 
1 41340U 16012D   22202.23289395  .00003556  00000+0  24798-3 0  9992
2 41340  31.0037 143.3683 0013301 177.6796 182.3903 15.03496885352811
